365P/PANSTARRS,e,9.8500,86.6562,67.4151,3.156299,0.1757668,0.58163447,100.6269,05/04.0/2025,2000,g 17.0,4.0
# From MPC114610
366P/Spacewatch,e,8.8567,70.7231,152.9947,3.500337,0.1505010,0.34863911,14.0132,05/04.0/2025,2000,g 15.0,4.0
# From MPC112395
367P/Catalina,e,8.4592,58.6612,172.6833,3.511694,0.1497715,0.28013265,16.8450,05/04.0/2025,2000,g 17.5,2.0
# From MPC114610
368P/NEAT,e,15.4825,257.8561,118.9858,5.534982,0.0756885,0.62568814,183.3712,05/04.0/2025,2000,g 14.0,4.0
# From MPC114610
369P/Hill,e,10.3197,47.2856,13.2377,4.378689,0.1075692,0.55590775,256.8497,05/04.0/2025,2000,g 15.0,4.0
# From MPEC 2021-F20
370P/NEAT,e,19.4178,55.0858,356.7839,6.440036,0.0603075,0.61518487,151.8096,05/04.0/2025,2000,g 13.0,4.0
# From MPC114610
371P/LINEAR-Skiff,e,17.3840,67.2836,308.5673,4.180552,0.1153065,0.47659521,276.7535,05/04.0/2025,2000,g 16.0,4.0
# From MPEC 2020-K19
372P/McNaught,e,9.5041,27.5501,325.9625,4.512791,0.1028102,0.15124544,245.2443,05/04.0/2025,2000,g 13.5,4.0
# From MPEC 2021-F20
373P/Rinner,e,13.7706,231.9315,221.1349,3.797017,0.1332110,0.39381026,294.8670,05/04.0/2025,2000,g 14.5,4.0
# From MPC114610
374P/Larson,e,10.7606,7.8682,51.5828,4.971286,0.0889203,0.46363794,204.6387,05/04.0/2025,2000,g 14.0,4.0
# From MPEC 2021-F20
375P/Hill,e,17.3741,359.8351,119.4491,5.545556,0.0754721,0.66022916,175.3473,05/04.0/2025,2000,g 16.0,4.0
# From MPEC 2024-RQ6
376P/LONEOS,e,1.1662,312.8491,285.3521,5.755341,0.0713834,0.51374672,147.0365,05/04.0/2025,2000,g 12.5,4.0
# From MPEC 2022-N37
377P/Scotti,e,9.0310,225.9421,354.8824,6.694820,0.0568978,0.25141527,100.1165,05/04.0/2025,2000,g  9.5,4.0
# From MPEC 2025-A40
378P/McNaught,e,19.1598,93.7912,193.3105,6.287129,0.0625209,0.46351441,104.4270,05/04.0/2025,2000,g 12.0,4.0
# From MPC115889
379P/Spacewatch,e,12.4364,30.4500,184.6814,3.483526,0.1515917,0.35020834,315.3141,05/04.0/2025,2000,g 15.0,4.0
# From MPEC 2023-C45
380P/PANSTARRS,e,8.0326,127.7257,87.7255,4.442297,0.1052671,0.33409101,234.4798,05/04.0/2025,2000,g 12.5,4.0
# From MPEC 2021-J28
381P/LINEAR-Spacewatch,e,28.3382,173.3196,173.8489,7.145054,0.0516055,0.68057358,105.6776,05/04.0/2025,2000,g 17.5,2.0
# From MPC182891
382P/Larson,e,8.2686,170.2682,162.3508,5.891631,0.0689209,0.26576630,88.2851,05/04.0/2025,2000,g  8.0,4.0
# From MPEC 2022-OB6
383P/Christensen,e,12.3169,207.8550,133.7247,3.548992,0.1474166,0.59848528,297.4093,05/04.0/2025,2000,g 18.0,4.0
# From MPC182891
384P/Kowalski,e,7.2840,354.1881,37.7042,2.897553,0.1998283,0.61625909,45.3364,05/04.0/2025,2000,g 19.5,4.0
# From MPEC 2021-F20
385P/Hill,e,16.8225,357.0359,44.4613,4.289104,0.1109569,0.40186939,228.0920,05/04.0/2025,2000,g 13.0,4.0
# From MPEC 2021-L04
386P/PANSTARRS,e,15.2467,134.9157,353.1026,4.049108,0.1209665,0.41749216,207.7337,05/04.0/2025,2000,g 14.5,4.0
# From MPEC 2021-J28
387P/Boattini,e,8.9379,259.2388,162.8519,4.797446,0.0937970,0.73699504,193.6013,05/04.0/2025,2000,g 15.0,4.0
# From MPEC 2021-S45
388P/Gibbs,e,23.8787,37.0103,42.3677,5.240780,0.0821505,0.61936173,173.1950,05/04.0/2025,2000,g 13.0,4.0
# From MPEC 2022-OB6
389P/Siding Spring,e,160.0797,218.8524,249.3261,5.630187,0.0737768,0.70568672,143.9122,05/04.0/2025,2000,g 16.0,4.0
# From MPEC 2024-EF7
390P/Gibbs,e,18.5228,152.2028,232.5552,5.817697,0.0702389,0.70669692,131.2476,05/04.0/2025,2000,g 12.0,4.0
# From MPEC 2021-F20
391P/Kowalski,e,21.2569,124.7744,186.9441,4.691422,0.0969945,0.11838160,252.9826,05/04.0/2025,2000,g  8.0,4.0
# From MPEC 2021-J28
392P/LINEAR,e,4.9286,24.8047,71.9619,6.142341,0.0647445,0.68393625,120.2355,05/04.0/2025,2000,g 14.5,4.0
# From MPC182892
393P/Spacewatch-Hill,e,16.7836,36.4014,329.2079,4.800354,0.0937118,0.11912749,188.5960,05/04.0/2025,2000,g 11.0,4.0
# From MPEC 2020-KB7
394P/PANSTARRS,e,8.5281,98.1050,54.4463,4.326590,0.1095180,0.36833798,216.9552,05/04.0/2025,2000,g 16.0,2.4
# From MPC182892
395P/Catalina-NEAT,e,3.5703,220.9724,100.6748,7.202867,0.0509854,0.41156899,59.5698,05/04.0/2025,2000,g 10.0,4.0
# From MPEC 2020-KB7
396P/,e,5.4425,136.6078,8.3076,6.798779,0.0555978,0.41697739,115.3593,05/04.0/2025,2000,g 12.0,4.0
# From MPEC 2022-OB6
397P/Lemmon,e,10.9201,8.2097,14.5872,3.832192,0.1313812,0.40460555,233.7238,05/04.0/2025,2000,g 12.0,4.0
# From MPEC 2021-L04
398P/Boattini,e,11.0274,320.1349,127.5490,3.124483,0.1784584,0.58376202,283.2767,05/04.0/2025,2000,g 15.5,4.0
# From MPEC 2023-XP6
399P/PANSTARRS,e,13.3165,207.1175,214.4472,3.793606,0.1333907,0.44729638,192.2652,05/04.0/2025,2000,g 14.0,4.0
# From MPEC 2024-TD8
400P/PANSTARRS,e,10.9251,176.3490,238.9499,3.561992,0.1466104,0.40960282,226.1458,05/04.0/2025,2000,g 15.5,2.8
# From MPEC 2022-K19
401P/McNaught,e,12.8002,359.9242,309.3557,5.776797,0.0709861,0.57835646,140.4549,05/04.0/2025,2000,g 12.5,4.0
# From MPEC 2024-LE0
402P/LINEAR,e,30.8290,123.0457,326.9860,7.040578,0.0527584,0.44002495,65.1560,05/04.0/2025,2000,g  9.0,4.0
# From MPEC 2021-J28
403P/Catalina,e,12.3320,277.5614,163.9669,5.432577,0.0778386,0.50424038,131.4804,05/04.0/2025,2000,g 12.0,4.0
# From MPEC 2025-GB9
404P/Bressi,e,9.8043,260.0421,169.0165,4.718984,0.0961460,0.12427152,52.8804,05/04.0/2025,2000,g 10.0,4.0
# From MPEC 2021-L04
405P/Lemmon,e,9.3790,112.1932,3.3080,3.603874,0.1440621,0.69018449,229.1089,05/04.0/2025,2000,g 17.5,4.0
# From MPEC 2021-F20
406P/Gibbs,e,1.2099,352.3896,11.5598,3.579404,0.1455419,0.54105631,246.2062,05/04.0/2025,2000,g 17.0,4.0
# From MPEC 2022-YN2
407P/PANSTARRS-Fuls,e,4.8759,80.2430,93.1537,3.492621,0.1510000,0.37587580,292.4033,05/04.0/2025,2000,g 14.0,4.0
# From MPEC 2025-J08
408P/Novichonok-Gerke,e,19.3520,189.4510,226.6877,4.745675,0.0953360,0.26843647,89.7059,05/04.0/2025,2000,g 11.0,4.0
# From MPEC 2022-ED3
409P/LONEOS-Hill,e,17.1478,143.6405,15.0417,6.032818,0.0665156,0.71021409,103.5234,05/04.0/2025,2000,g 14.0,4.0
# From MPEC 2022-M21
410P/NEAT-LINEAR,e,9.3881,139.9345,313.2677,6.653453,0.0574293,0.51172727,80.9332,05/04.0/2025,2000,g 12.5,4.0
# From MPEC 2025-HB5
411P/Christensen,e,12.3889,77.6516,46.5696,5.811651,0.0703485,0.58178548,109.6978,05/04.0/2025,2000,g 13.5,4.0
# From MPEC 2021-F20
412P/WISE,e,8.9298,0.8435,155.8643,3.111347,0.1795897,0.47905316,289.6638,05/04.0/2025,2000,g 17.0,4.0
# From MPEC 2025-J08
413P/Larson,e,15.9616,38.9498,186.7444,3.735418,0.1365197,0.41788221,189.5823,05/04.0/2025,2000,g 14.0,4.0
# From MPEC 2024-JU4
414P/STEREO,e,23.4073,257.8157,210.7096,2.792086,0.2112568,0.81226376,329.2981,05/04.0/2025,2000,g 19.0,4.0
# From MPEC 2022-J42
415P/Tenagra,e,31.8090,160.2581,345.8808,4.108250,0.1183638,0.19550803,182.2526,05/04.0/2025,2000,g 12.0,4.0
# From MPEC 2025-HB5
416P/Scotti,e,3.3633,355.7332,134.4499,4.006509,0.1229008,0.45545400,188.9387,05/04.0/2025,2000,g 15.5,4.0
# From MPEC 2021-W31
417P/NEOWISE,e,9.8611,112.1666,126.4110,3.343603,0.1612063,0.55641538,241.1093,05/04.0/2025,2000,g 16.5,4.0
# From MPEC 2022-TA0
418P/LINEAR,e,5.7808,277.6212,307.3367,5.090325,0.0858195,0.66384064,111.1899,05/04.0/2025,2000,g 13.0,4.0
# From MPEC 2023-UR6
419P/PANSTARRS,e,2.7956,40.4135,187.8614,3.533457,0.1483899,0.27383665,191.0984,05/04.0/2025,2000,g 12.5,4.0
# From MPEC 2024-L77
420P/Hill,e,14.4975,173.5635,156.4114,5.482888,0.0767697,0.49512389,83.0376,05/04.0/2025,2000,g 11.5,4.0
# From MPEC 2021-W31
421P/McNaught,e,10.0759,55.3329,259.8623,5.075006,0.0862083,0.67438508,134.5945,05/04.0/2025,2000,g 14.0,4.0
# From MPEC 2024-N80
422P/Christensen,e,39.5806,36.0144,304.7651,6.274693,0.0627069,0.50574245,75.8217,05/04.0/2025,2000,g 11.0,4.0
# From MPEC 2023-FK0
423P/Lemmon,e,8.3428,33.3021,80.8931,6.181809,0.0641255,0.12278030,84.3744,05/04.0/2025,2000,g  8.0,4.0
# From MPEC 2022-CN4
424P/LaSagra,e,8.6817,51.2099,312.5582,4.420939,0.1060309,0.69041056,135.8313,05/04.0/2025,2000,g 17.0,4.0
# From MPEC 2024-C04
425P/Kowalski,e,16.4144,210.0859,200.9863,6.351380,0.0615746,0.54375103,81.3405,05/04.0/2025,2000,g 12.0,4.0
# From MPEC 2024-N80
426P/PANSTARRS,e,17.7841,280.3970,118.3993,3.185894,0.1733234,0.16105308,104.2752,05/04.0/2025,2000,g 13.5,4.0
# From MPEC 2023-J29
428P/Gibbs,e,8.5030,299.3120,36.8977,3.488430,0.1512722,0.51822353,219.6227,05/04.0/2025,2000,g 15.0,4.0
# From MPEC 2024-EF7
429P/LINEAR-Hill,e,7.5143,322.0167,75.7320,3.555767,0.1469955,0.49088588,179.0130,05/04.0/2025,2000,g 15.5,4.0
# From MPEC 2022-L66
430P/Scotti,e,4.4755,54.6487,94.4486,3.103293,0.1802893,0.50024953,225.0529,05/04.0/2025,2000,g 16.5,4.0
# From MPEC 2025-A40
431P/Scotti,e,22.3811,202.8391,200.0000,3.476950,0.1520220,0.47737916,178.6981,05/04.0/2025,2000,g 14.0,4.0
# From MPEC 2021-U31
432P/PANSTARRS,e,10.0679,239.1304,105.2773,3.038265,0.1861083,0.24085968,250.1162,05/04.0/2025,2000,g 17.0,4.0
# From MPEC 2024-D33
434P/Tenagra,e,6.3362,288.9145,128.4384,4.135806,0.1171828,0.27435339,150.5668,05/04.0/2025,2000,g 13.0,4.0
# From MPEC 2021-W31
435P/PANSTARRS,e,18.8744,98.5247,244.2136,3.021571,0.1876527,0.31757838,258.5456,05/04.0/2025,2000,g 17.0,4.0
# From MPEC 2022-X67
436P/Garradd,e,20.1993,87.1567,282.7605,5.936749,0.0681367,0.66910701,84.7029,05/04.0/2025,2000,g 14.5,4.0
# From MPEC 2023-B57
437P/Lemmon-PANSTARRS,e,3.6890,245.8405,207.0503,4.568733,0.1009277,0.25506887,99.6957,05/04.0/2025,2000,g 13.0,4.0
# From MPEC 2025-A40
438P/Christensen,e,8.2807,260.1091,58.9911,3.852498,0.1303438,0.41415180,242.1478,05/04.0/2025,2000,g 14.5,4.0
# From MPEC 2022-C56
439P/LINEAR,e,7.1122,56.4375,342.1053,3.491782,0.1510544,0.46913095,203.4127,05/04.0/2025,2000,g 13.5,4.0
# From MPEC 2024-N80
440P/Kobayashi,e,12.3500,328.8077,183.2987,8.578898,0.0392244,0.76083128,44.3495,05/04.0/2025,2000,g 15.5,4.0
# From MPEC 2022-X67
441P/PANSTARRS,e,2.5747,143.5915,178.8642,4.132357,0.1173295,0.19468074,344.9395,05/04.0/2025,2000,g 13.5,4.0
# From MPEC 2024-N80
442P/McNaught,e,6.0573,31.9590,310.6500,4.955651,0.0893414,0.53255030,88.4709,05/04.0/2025,2000,g 13.5,4.0
# From MPEC 2024-TD8
443P/PANSTARRS-Christensen,e,19.8879,108.9346,145.0784,4.124640,0.1176590,0.28298949,110.3024,05/04.0/2025,2000,g 13.5,4.0
# From MPEC 2023-VM5
